STARLINK-1967
1 27568C 21009W   21325.12950949  .00004297  00000-0  28784-3 0  3251
2 27568  53.0530 247.6537 0001915  70.8877  10.6370 15.06402382    14
